COSMOS 2433 (720)       
1 32275U 07052A   23310.38242156 -.00000057  00000+0  00000+0 0  9994
2 32275  66.0049 347.8384 0005400 245.0939 114.9131  2.13104223124739
COSMOS 2432 (719)       
1 32276U 07052B   23311.48261258 -.00000051  00000+0  00000+0 0  9995
2 32276  66.0191 347.9117 0010515 311.4351 119.4651  2.13103394124793
COSMOS 2434 (721)       
1 32393U 07065A   23311.25826698 -.00000025  00000+0  00000+0 0  9990
2 32393  64.3298 224.1362 0002705  69.6917 133.6267  2.13103149123497
COSMOS 2436 (723)       
1 32395U 07065C   23311.48525493 -.00000024  00000+0  00000+0 0  9995
2 32395  64.3385 224.1908 0016586   1.2848 151.6079  2.13102776123439
COSMOS 2456 (730)       
1 36111U 09070A   23311.31351309  .00000070  00000+0  00000+0 0  9998
2 36111  64.5187 103.6090 0001276 321.5080  82.4252  2.13099147108164
COSMOS 2457 (733)       
1 36112U 09070B   23310.57459741  .00000069  00000+0  00000+0 0  9993
2 36112  64.5024 103.4982 0006537 150.4776 177.8768  2.13101335108141
COSMOS 2460 (732)       
1 36402U 10007C   23310.82763073 -.00000053  00000+0  00000+0 0  9995
2 36402  65.8660 346.5282 0002483 251.2879 260.3244  2.13106400106419
COSMOS 2476 (744)       
1 37867U 11064A   23311.37454003  .00000074  00000+0  00000+0 0  9998
2 37867  64.7972 105.1584 0021762 230.2294 130.3843  2.13101766 93519
COSMOS 2477 (745)       
1 37868U 11064B   23310.77346528  .00000074  00000+0  00000+0 0  9994
2 37868  64.8041 105.2490 0018931 230.2513 207.0927  2.13101619 93447
COSMOS 2475 (743)       
1 37869U 11064C   23310.90113644  .00000074  00000+0  00000+0 0  9991
2 37869  64.8114 105.2575 0022884 248.4517 245.3828  2.13101881 93468
COSMOS 2485 (747)       
1 39155U 13019A   23311.31564086  .00000075  00000+0  00000+0 0  9990
2 39155  64.9570 105.6977 0022273 226.2771 133.5480  2.13101862 81977
COSMOS 2492 (754)       
1 39620U 14012A   23311.27119541 -.00000050  00000+0  00000+0 0  9992
2 39620  65.7491 346.1226 0013667 310.7332  49.2123  2.13103275 74938
COSMOS 2500 (755)       
1 40001U 14032A   23310.98437763 -.00000052  00000+0  00000+0 0  9997
2 40001  65.6873 345.9549 0008560 215.8283 144.1775  2.13106122 73141
COSMOS 2501 (702K)      
1 40315U 14075A   23311.23506342 -.00000025  00000+0  00000+0 0  9991
2 40315  63.6327 223.4349 0018784 207.9048 152.0282  2.13101293 69543
COSMOS 2514 (751)       
1 41330U 16008A   23310.74729077 -.00000053  00000+0  00000+0 0  9995
2 41330  65.4840 345.5282 0012533 218.9223 141.0497  2.13102739 60303
COSMOS 2522 (752)       
1 42939U 17055A   23311.05805373 -.00000026  00000+0  00000+0 0  9993
2 42939  64.0935 224.4036 0007390 240.8488 119.1094  2.13102065 47668
COSMOS 2527 (756)       
1 43508U 18053A   23311.01671557  .00000076  00000+0  00000+0 0  9990
2 43508  65.1177 105.8134 0007932 213.9141 146.0449  2.13102486 41968
COSMOS 2529 (757)       
1 43687U 18086A   23310.64681697 -.00000027  00000+0  00000+0 0  9995
2 43687  64.3088 224.8701 0009082 265.1799  94.7480  2.13102100 38969
COSMOS 2534 (758)       
1 44299U 19030A   23311.17675347 -.00000026  00000+0  00000+0 0  9998
2 44299  64.3818 224.7845 0011556 287.1079 253.6069  2.13102003 34600
COSMOS 2544 (759)       
1 44850U 19088A   23311.42977310  .00000076  00000+0  00000+0 0  9991
2 44850  65.1041 105.6412 0011549 247.4646 112.4225  2.13102233 30391
COSMOS 2545 (760)       
1 45358U 20018A   23310.68816295 -.00000055  00000+0  00000+0 0  9999
2 45358  64.8243 345.7236 0011838 246.6454 113.2919  2.13102703 28348
COSMOS 2547 (705K)      
1 46805U 20075A   23310.40761184 -.00000027  00000+0  00000+0 0  9995
2 46805  64.6093 224.3855 0006878 242.0514 117.9114  2.13102843 23585
COSMOS 2557 (706K)      
1 52984U 22075A   23310.57053740 -.00000059  00000+0  00000+0 0  9997
2 52984  64.7431 347.8803 0013662 276.6944  83.2126  2.13102294 10393
COSMOS 2559 (707K)      
1 54031U 22130A   23311.45125946 -.00000054  00000+0  00000+0 0  9995
2 54031  64.7142 347.9750 0007989 229.0977 130.8971  2.13101554  8383
COSMOS 2564 (761)       
1 54377U 22161A   23310.70551360 -.00000027  00000+0  00000+0 0  9992
2 54377  64.7502 224.4399 0008776 219.7607 140.2071  2.13102225  7319
COSMOS 2569 (703K)      
1 57517U 23114A   23310.25540055  .00000072  00000+0  00000+0 0  9998
2 57517  64.8272 104.9115 0008704 294.0249  65.8923  2.13104194  1937
